STARLINK-5531
1 55383U 23013BE  26090.59846996  .00086261  00000+0  31576-2 0  9992
2 55383  43.0001 164.9902 0001856 251.2386 108.8264 15.27056060175196
STARLINK-5373
1 55490U 23015AT  26089.37294426  .00031688  00000+0  11769-2 0  9997
2 55490  43.0015 222.4706 0003381 232.5552 127.4992 15.26988129173769
STARLINK-5766
1 56025U 23042AR  26090.83335647  .00641097  00000+0  22036-1 0  9995
2 56025  42.9995 280.5409 0002036 260.0554 244.7462 15.26975113  5823
STARLINK-6265
1 56557U 23065BG  26090.73614186  .00062972  00000+0  23143-2 0  9997
2 56557  43.0024  99.0856 0003723 259.3434 100.6998 15.27060941159840
STARLINK-30217
1 57450U 23105W   26090.47645079  .00038066  00000+0  14087-2 0  9995
2 57450  43.0052 125.8321 0001745 257.1204 102.9452 15.27037951149048
STARLINK-30075
1 57616U 23119Q   26090.02282801  .00031631  00000+0  11752-2 0  9992
2 57616  43.0067 320.7080 0002609 256.8159 103.2401 15.26979858146350
STARLINK-30362
1 57745U 23131P   26090.08342368  .00034189  00000+0  12679-2 0  9990
2 57745  43.0050  52.0307 0001992 170.0949 189.9942 15.27009992143183
STARLINK-30590
1 58090U 23160R   26090.00515895  .00012719  00000+0  47806-3 0  9991
2 58090  42.9977 321.0837 0000893 278.5308  81.5442 15.27081495136162
